{
"type": "FeatureCollection",
"name": "waterways",
"crs": { "type": "name", "properties": { "name": "urn:ogc:def:crs:OGC:1.3:CRS84" } },
"features": [
{ "type": "Feature", "properties": { "element": "way", "id": 185470060, "name:en": null, "waterway": "river", "boat": "no", "name": "Balkhu River", "source": null, "name:ne": null, "name:new": null, "name:pl": null, "wikidata": null, "wikipedia": null }, "geometry": { "type": "LineString", "coordinates": [ [ 85.2624918, 27.6816657 ], [ 85.2626732, 27.6816462 ], [ 85.2628964, 27.6814718 ], [ 85.2631893, 27.6813144 ], [ 85.2634187, 27.6811929 ], [ 85.263696, 27.6809804 ], [ 85.2638166, 27.6807743 ], [ 85.263917, 27.6804482 ], [ 85.2640185, 27.6801581 ], [ 85.2641569, 27.6798921 ], [ 85.2645244, 27.6794997 ], [ 85.2646538, 27.6793656 ], [ 85.2648267, 27.6792541 ], [ 85.2650861, 27.679034 ], [ 85.2652926, 27.6789492 ], [ 85.265486, 27.6789591 ], [ 85.2656832, 27.6789605 ], [ 85.2658743, 27.6788665 ], [ 85.2661202, 27.6788751 ], [ 85.2662594, 27.6789213 ], [ 85.2662984, 27.6790001 ], [ 85.2662968, 27.67917 ], [ 85.2662955, 27.6793124 ], [ 85.2662989, 27.6794825 ], [ 85.2663386, 27.6795947 ], [ 85.2664799, 27.6796659 ], [ 85.2667148, 27.6796848 ], [ 85.2668408, 27.6797709 ], [ 85.2669754, 27.6799108 ], [ 85.2670396, 27.6800502 ], [ 85.2670641, 27.6802344 ], [ 85.2672261, 27.6804615 ], [ 85.2673223, 27.6806139 ], [ 85.2674614, 27.6807657 ], [ 85.2676486, 27.6808699 ], [ 85.267828, 27.6809812 ], [ 85.2679146, 27.6811004 ], [ 85.2680397, 27.6813007 ], [ 85.2681035, 27.6813577 ], [ 85.2681656, 27.6813811 ], [ 85.2683444, 27.6813697 ], [ 85.2684497, 27.6814341 ], [ 85.2685697, 27.6814462 ], [ 85.2688875, 27.6813595 ], [ 85.2690826, 27.6813597 ], [ 85.2692631, 27.6814244 ], [ 85.2693442, 27.6815456 ], [ 85.2693683, 27.6816989 ], [ 85.2694214, 27.6818329 ], [ 85.2695745, 27.6819412 ], [ 85.2697286, 27.6820267 ], [ 85.2699645, 27.6821465 ], [ 85.2704176, 27.6822351 ], [ 85.2704644, 27.6825034 ], [ 85.2705056, 27.6826512 ], [ 85.2704437, 27.6828395 ], [ 85.2701767, 27.6830551 ], [ 85.2701001, 27.6831888 ], [ 85.2700393, 27.6833665 ], [ 85.2699526, 27.6835282 ], [ 85.2699062, 27.6836255 ], [ 85.2699031, 27.6837104 ], [ 85.2700455, 27.683772 ], [ 85.2701831, 27.6837501 ], [ 85.2705539, 27.6839269 ], [ 85.2706808, 27.6840703 ], [ 85.2709652, 27.6840935 ], [ 85.2714072, 27.6841168 ], [ 85.2717922, 27.6842175 ], [ 85.272046, 27.6842717 ], [ 85.2723304, 27.6843221 ], [ 85.2724427, 27.6843762 ], [ 85.2724755, 27.6845515 ], [ 85.2724036, 27.6846053 ], [ 85.2722917, 27.6847505 ], [ 85.27223, 27.6848821 ], [ 85.2722092, 27.6849837 ], [ 85.2722145, 27.6851303 ], [ 85.2722407, 27.6853368 ], [ 85.272284, 27.685483 ], [ 85.2723367, 27.6855841 ], [ 85.272406, 27.685661 ], [ 85.2725183, 27.6857163 ], [ 85.272643, 27.6857504 ], [ 85.2729869, 27.685756 ], [ 85.273202, 27.6857441 ], [ 85.2734279, 27.6857111 ], [ 85.2736069, 27.6857311 ], [ 85.273757, 27.6857843 ], [ 85.2739163, 27.68586 ], [ 85.2740956, 27.685994 ], [ 85.2741804, 27.6860916 ], [ 85.2742209, 27.6861726 ], [ 85.2742189, 27.6862362 ], [ 85.2740876, 27.6865443 ], [ 85.2740141, 27.6867803 ], [ 85.2739735, 27.6869332 ], [ 85.2739662, 27.6870578 ], [ 85.2739649, 27.6873776 ], [ 85.2739771, 27.6874579 ], [ 85.2740133, 27.687556 ], [ 85.274087, 27.6876384 ], [ 85.2741879, 27.6877367 ], [ 85.2742382, 27.6877796 ], [ 85.2744482, 27.6878377 ], [ 85.2748153, 27.6879085 ], [ 85.2751811, 27.6880275 ], [ 85.2752271, 27.6880488 ], [ 85.2754314, 27.6880465 ], [ 85.2757325, 27.6880095 ], [ 85.2760845, 27.6879677 ], [ 85.2762481, 27.6879515 ], [ 85.2764239, 27.6879662 ], [ 85.2765784, 27.6880537 ], [ 85.2766702, 27.6882889 ], [ 85.2767422, 27.6884084 ], [ 85.2769182, 27.6885587 ], [ 85.2770534, 27.688676 ], [ 85.2772067, 27.6888813 ], [ 85.2771871, 27.6889626 ], [ 85.2770965, 27.6890436 ], [ 85.2769619, 27.6890899 ], [ 85.2768493, 27.6891241 ], [ 85.2767248, 27.6891784 ], [ 85.2764049, 27.6894122 ], [ 85.2762565, 27.6895028 ], [ 85.2761788, 27.6895726 ], [ 85.2761276, 27.6896488 ], [ 85.276094, 27.6898422 ], [ 85.2760281, 27.6899975 ], [ 85.2759618, 27.6901414 ], [ 85.2758771, 27.6902535 ], [ 85.2758021, 27.6903429 ], [ 85.2757956, 27.6903847 ], [ 85.275804, 27.6904385 ], [ 85.2758553, 27.6905228 ], [ 85.2758961, 27.6906138 ], [ 85.2758837, 27.6906858 ], [ 85.2758228, 27.6908174 ], [ 85.2758145, 27.6908699 ], [ 85.2758487, 27.6909216 ], [ 85.2759346, 27.6909875 ], [ 85.2760226, 27.6910488 ], [ 85.2763659, 27.6912273 ], [ 85.2766162, 27.691352 ], [ 85.2767515, 27.6914259 ], [ 85.2768876, 27.6915181 ], [ 85.2769262, 27.6915478 ], [ 85.2769784, 27.6916229 ], [ 85.277237, 27.6918076 ], [ 85.2773688, 27.6919017 ], [ 85.2774628, 27.6919407 ], [ 85.2775398, 27.6919402 ], [ 85.2775996, 27.6919162 ], [ 85.2776542, 27.6918727 ], [ 85.2777181, 27.6917588 ], [ 85.2777698, 27.691612 ], [ 85.2777934, 27.6915659 ], [ 85.2779061, 27.6914292 ], [ 85.2780716, 27.6912592 ], [ 85.2781165, 27.691193 ], [ 85.278148, 27.6911465 ], [ 85.2781464, 27.6910996 ], [ 85.2780742, 27.6909576 ], [ 85.2780496, 27.6908729 ], [ 85.2780337, 27.6907184 ], [ 85.2780412, 27.6905871 ], [ 85.2780565, 27.6905499 ], [ 85.2781029, 27.6904949 ], [ 85.2782469, 27.6903734 ], [ 85.2783171, 27.6903027 ], [ 85.2783724, 27.6902627 ], [ 85.27846, 27.6902357 ], [ 85.2785155, 27.6902338 ], [ 85.2786003, 27.6902348 ], [ 85.2787022, 27.6902666 ], [ 85.278819, 27.6902895 ], [ 85.2791199, 27.6903278 ], [ 85.2795336, 27.6903609 ], [ 85.280055, 27.6904108 ], [ 85.2802771, 27.6904223 ], [ 85.2803684, 27.690427 ], [ 85.2804678, 27.6904496 ], [ 85.2805439, 27.6904852 ], [ 85.280628, 27.6905369 ], [ 85.2807662, 27.6906417 ], [ 85.2810554, 27.6908657 ], [ 85.2811204, 27.6908921 ], [ 85.281196, 27.6908973 ], [ 85.2812658, 27.6908888 ], [ 85.2813229, 27.6908738 ], [ 85.2813751, 27.6908582 ], [ 85.2814398, 27.6908202 ], [ 85.2816912, 27.6906373 ], [ 85.2820538, 27.6903308 ], [ 85.2822014, 27.6902134 ], [ 85.282574, 27.6899461 ], [ 85.2828279, 27.6897474 ], [ 85.2829099, 27.6896974 ], [ 85.2829805, 27.6896668 ], [ 85.2830427, 27.6896511 ], [ 85.2831259, 27.6896454 ], [ 85.2831769, 27.68965 ], [ 85.2831984, 27.6896595 ], [ 85.2832352, 27.6896902 ], [ 85.2833017, 27.6897667 ], [ 85.2833421, 27.6897942 ], [ 85.2833664, 27.6898012 ], [ 85.2834224, 27.6897954 ], [ 85.2835151, 27.6897289 ], [ 85.2835768, 27.6897143 ], [ 85.2836905, 27.6897367 ], [ 85.2838487, 27.6897921 ], [ 85.2840003, 27.6898573 ], [ 85.2840944, 27.6899091 ], [ 85.284255, 27.6900365 ], [ 85.2843492, 27.6901267 ], [ 85.2843838, 27.6901702 ], [ 85.2844133, 27.6902257 ], [ 85.2844193, 27.6902567 ], [ 85.2844106, 27.6902956 ], [ 85.2843841, 27.6903271 ], [ 85.2841288, 27.6905153 ], [ 85.2840375, 27.6905954 ], [ 85.2840094, 27.6906404 ], [ 85.2840115, 27.6907069 ], [ 85.2840356, 27.6907894 ], [ 85.2840731, 27.6908762 ], [ 85.2841359, 27.6909887 ], [ 85.2842019, 27.6910821 ], [ 85.2842645, 27.6911758 ], [ 85.2843092, 27.6912426 ], [ 85.2843592, 27.6912811 ], [ 85.2844224, 27.6913042 ], [ 85.2845252, 27.6913168 ], [ 85.284615, 27.6913125 ], [ 85.2846596, 27.6913031 ], [ 85.2847452, 27.6912586 ], [ 85.2850089, 27.691115 ], [ 85.2851001, 27.6910395 ], [ 85.285185, 27.6909245 ], [ 85.2852419, 27.6908316 ], [ 85.2853721, 27.6905707 ], [ 85.28541, 27.6904841 ], [ 85.2854187, 27.6903977 ], [ 85.285411, 27.6902962 ], [ 85.2854001, 27.6901862 ], [ 85.2854025, 27.6900766 ], [ 85.2854204, 27.6899862 ], [ 85.2854648, 27.6899125 ], [ 85.2855251, 27.6898457 ], [ 85.285661, 27.6897352 ], [ 85.2857802, 27.6896678 ], [ 85.2859208, 27.6896156 ], [ 85.2859988, 27.6895979 ], [ 85.2860763, 27.6895897 ], [ 85.286148, 27.6895926 ], [ 85.2862141, 27.6896049 ], [ 85.2862747, 27.6896253 ], [ 85.2863797, 27.689684 ], [ 85.2864641, 27.6897566 ], [ 85.2865755, 27.6898948 ], [ 85.2865997, 27.689917 ], [ 85.2866334, 27.6899297 ], [ 85.2866743, 27.6899344 ], [ 85.2867692, 27.6899257 ], [ 85.2868666, 27.6899022 ], [ 85.2869985, 27.6898563 ], [ 85.2870055, 27.6898534 ], [ 85.2873982, 27.6897143 ], [ 85.2875365, 27.6896975 ], [ 85.2877217, 27.689702 ], [ 85.2878618, 27.6897307 ], [ 85.2879411, 27.6897304 ], [ 85.2880111, 27.6897073 ], [ 85.2880564, 27.6896814 ], [ 85.2880883, 27.6896441 ], [ 85.2880985, 27.6896023 ], [ 85.2880924, 27.6895568 ], [ 85.2880469, 27.6894816 ], [ 85.287945, 27.6893462 ], [ 85.2878548, 27.6892098 ], [ 85.2878066, 27.6891303 ], [ 85.2877934, 27.6890703 ], [ 85.2878495, 27.6889648 ], [ 85.2880161, 27.6888116 ], [ 85.2880973, 27.6887628 ], [ 85.2882527, 27.6887036 ], [ 85.2883522, 27.6886647 ], [ 85.2887125, 27.6885628 ], [ 85.2889622, 27.6885211 ], [ 85.2891067, 27.6885104 ], [ 85.2892132, 27.6885097 ], [ 85.2892718, 27.6885177 ], [ 85.2893227, 27.6885389 ], [ 85.2893663, 27.6885924 ], [ 85.289522, 27.6889353 ], [ 85.2896265, 27.6892574 ], [ 85.2896911, 27.6894091 ], [ 85.2897693, 27.6894589 ], [ 85.2899412, 27.6894329 ], [ 85.2900929, 27.6894213 ], [ 85.2901943, 27.689448 ], [ 85.2903284, 27.6895399 ], [ 85.2904518, 27.6896929 ], [ 85.2905276, 27.689728 ], [ 85.2906069, 27.6897346 ], [ 85.2907229, 27.6897186 ], [ 85.2908494, 27.6896492 ], [ 85.2909248, 27.6895905 ], [ 85.290979, 27.6895065 ], [ 85.2910468, 27.6892478 ], [ 85.2910588, 27.6891024 ], [ 85.2910724, 27.6889766 ], [ 85.2911205, 27.6889029 ], [ 85.2912278, 27.6887591 ], [ 85.2913233, 27.688674 ], [ 85.291443, 27.6885086 ], [ 85.2916353, 27.6883205 ], [ 85.2917652, 27.6882469 ], [ 85.2919047, 27.6882064 ], [ 85.2920411, 27.6881234 ], [ 85.2922541, 27.6879932 ], [ 85.2924767, 27.6878461 ], [ 85.2926471, 27.6876311 ], [ 85.2927494, 27.6874471 ], [ 85.2928239, 27.6873113 ], [ 85.2928505, 27.6872076 ], [ 85.2928517, 27.6869314 ], [ 85.2928379, 27.6866098 ], [ 85.2928546, 27.686461 ], [ 85.2929103, 27.6864136 ], [ 85.2930147, 27.6863948 ], [ 85.2932958, 27.6865268 ], [ 85.293455, 27.6865946 ], [ 85.2935487, 27.6866021 ], [ 85.2937213, 27.6865832 ], [ 85.2937695, 27.6865892 ], [ 85.2938234, 27.6866039 ], [ 85.2938783, 27.6866323 ], [ 85.2939142, 27.6866645 ], [ 85.2939658, 27.6867161 ], [ 85.2939885, 27.6867864 ], [ 85.2940031, 27.6868756 ], [ 85.2939964, 27.6869159 ], [ 85.2939807, 27.6869674 ], [ 85.2938929, 27.6871514 ], [ 85.2938728, 27.6872425 ], [ 85.2938941, 27.6873141 ], [ 85.2939677, 27.6873662 ], [ 85.2942889, 27.6875182 ], [ 85.2943635, 27.6875484 ], [ 85.2946936, 27.6876597 ], [ 85.2948939, 27.6877314 ], [ 85.2951529, 27.6878013 ], [ 85.2953394, 27.6878409 ], [ 85.2955232, 27.687872 ], [ 85.2957736, 27.6878879 ], [ 85.296008, 27.6879125 ], [ 85.2962337, 27.6879426 ], [ 85.2964165, 27.6879648 ], [ 85.2965401, 27.6879244 ], [ 85.2965638, 27.6877541 ], [ 85.2965277, 27.6876363 ], [ 85.2964721, 27.687503 ], [ 85.2963922, 27.687323 ], [ 85.2963476, 27.6869532 ], [ 85.2964253, 27.6868102 ], [ 85.2963973, 27.6865136 ], [ 85.2963919, 27.6862447 ], [ 85.2964152, 27.6861449 ], [ 85.2965277, 27.6860609 ], [ 85.2969719, 27.685922 ], [ 85.297229, 27.6858737 ], [ 85.2974786, 27.6858256 ], [ 85.2977604, 27.6857568 ], [ 85.2978277, 27.6856267 ], [ 85.297853, 27.6853718 ], [ 85.2978751, 27.68517 ], [ 85.2978324, 27.6846724 ], [ 85.2978669, 27.684492 ], [ 85.2980387, 27.6843101 ], [ 85.2980849, 27.684178 ], [ 85.2980679, 27.6837756 ], [ 85.2980795, 27.6835452 ], [ 85.298415, 27.683159 ], [ 85.2986515, 27.6830289 ], [ 85.2989772, 27.6829532 ], [ 85.2993589, 27.6828645 ] ] } },
{ "type": "Feature", "properties": { "element": "way", "id": 185751198, "name:en": null, "waterway": "river", "boat": null, "name": "Bishnumati", "source": null, "name:ne": null, "name:new": null, "name:pl": null, "wikidata": null, "wikipedia": null }, "geometry": { "type": "LineString", "coordinates": [ [ 85.3028037, 27.7001904 ], [ 85.3028173, 27.699976 ], [ 85.3028045, 27.6997288 ], [ 85.3027932, 27.6995303 ], [ 85.3027382, 27.6993023 ], [ 85.3026583, 27.6989635 ], [ 85.3025287, 27.6985779 ], [ 85.3023098, 27.6980889 ], [ 85.3022825, 27.6979551 ], [ 85.3021652, 27.6977923 ], [ 85.3019781, 27.6975376 ], [ 85.3015518, 27.6969129 ], [ 85.3013451, 27.6966999 ], [ 85.3009113, 27.696196 ], [ 85.3007125, 27.695955 ], [ 85.3004705, 27.6956753 ], [ 85.3003845, 27.6954546 ], [ 85.3002597, 27.6952437 ], [ 85.3000878, 27.6948164 ], [ 85.2998678, 27.694391 ], [ 85.2997959, 27.6941321 ], [ 85.2996883, 27.6937273 ], [ 85.2996618, 27.6934741 ], [ 85.2996822, 27.6933226 ], [ 85.2997342, 27.6931704 ], [ 85.299908, 27.6929601 ], [ 85.3003787, 27.6926795 ], [ 85.3009852, 27.6923701 ], [ 85.3018994, 27.6918739 ], [ 85.3022296, 27.6917319 ], [ 85.3022954, 27.6916626 ], [ 85.3023442, 27.6916112 ], [ 85.3023639, 27.6915154 ], [ 85.3023308, 27.6914632 ] ] } },
{ "type": "Feature", "properties": { "element": "way", "id": 518770057, "name:en": "Bagmati River", "waterway": "river", "boat": "no", "name": "Bagmati Nadi (बागमती नदी)", "source": "Bing", "name:ne": "बागमती नदी", "name:new": "बागमती खुसी", "name:pl": "Bagmati", "wikidata": "Q4461769", "wikipedia": "en:Bagmati River" }, "geometry": { "type": "LineString", "coordinates": [ [ 85.3159055, 27.6898542 ], [ 85.3157258, 27.6899979 ], [ 85.3154375, 27.6902365 ], [ 85.3149989, 27.6906106 ], [ 85.3148299, 27.690746 ], [ 85.3146958, 27.6908434 ], [ 85.3145671, 27.6909241 ], [ 85.314441, 27.6909882 ], [ 85.3142908, 27.6910262 ], [ 85.3136616, 27.6913076 ], [ 85.313369, 27.6914172 ], [ 85.3131273, 27.6915054 ], [ 85.3127888, 27.6916247 ], [ 85.3125152, 27.6917055 ], [ 85.3123596, 27.6917411 ], [ 85.3121585, 27.6917625 ], [ 85.3120083, 27.6917649 ], [ 85.3118286, 27.6917506 ], [ 85.3116676, 27.6917411 ], [ 85.3114825, 27.6917554 ], [ 85.3113404, 27.6918029 ], [ 85.3101703, 27.6922296 ], [ 85.3096406, 27.6924454 ], [ 85.3090249, 27.6926654 ], [ 85.3086358, 27.6928019 ], [ 85.308257, 27.692903 ], [ 85.3076832, 27.6930267 ], [ 85.3072377, 27.6931038 ], [ 85.3068082, 27.6931914 ], [ 85.3065122, 27.6932431 ], [ 85.3063037, 27.6932573 ], [ 85.3061132, 27.6932396 ], [ 85.3059326, 27.6932119 ], [ 85.3057425, 27.6931721 ], [ 85.3051069, 27.6929903 ], [ 85.3046107, 27.6928194 ], [ 85.3042781, 27.6927172 ], [ 85.3040978, 27.6926425 ], [ 85.304026, 27.6926127 ], [ 85.303731, 27.6924797 ], [ 85.3034386, 27.6923396 ], [ 85.3031704, 27.6921852 ], [ 85.3029799, 27.692057 ], [ 85.302752, 27.6918789 ], [ 85.3024261, 27.6915642 ], [ 85.3023308, 27.6914632 ], [ 85.3019688, 27.6909384 ], [ 85.301781, 27.6906106 ], [ 85.3015745, 27.6902544 ], [ 85.3012016, 27.6895015 ], [ 85.3011399, 27.6894041 ], [ 85.301038, 27.6891856 ], [ 85.300912, 27.688732 ], [ 85.3007913, 27.6882142 ], [ 85.300625, 27.6878318 ], [ 85.3005311, 27.6875515 ], [ 85.3004694, 27.6873283 ], [ 85.3004318, 27.6870457 ], [ 85.300338, 27.6865279 ], [ 85.3003031, 27.6862595 ], [ 85.3002495, 27.686022 ], [ 85.3001717, 27.6857702 ], [ 85.3000729, 27.6854933 ], [ 85.2999809, 27.685314 ], [ 85.299798, 27.685036 ], [ 85.2996109, 27.684783 ], [ 85.2995226, 27.6846088 ], [ 85.2994448, 27.6843736 ], [ 85.2993295, 27.6840815 ], [ 85.2992383, 27.6837442 ], [ 85.2992195, 27.6835756 ], [ 85.299257, 27.6833808 ], [ 85.2993187, 27.6831813 ], [ 85.2993348, 27.6830198 ], [ 85.2993589, 27.6828645 ], [ 85.2993134, 27.6826018 ], [ 85.2992839, 27.6825115 ], [ 85.2992436, 27.6824545 ], [ 85.2991846, 27.6823666 ], [ 85.2991471, 27.682255 ], [ 85.2990505, 27.6818037 ], [ 85.2990451, 27.681407 ], [ 85.2990344, 27.6811648 ], [ 85.2990398, 27.6809344 ], [ 85.2990425, 27.6805425 ], [ 85.2990505, 27.6803097 ], [ 85.2990451, 27.6797871 ], [ 85.2990156, 27.6794 ], [ 85.2989754, 27.6790912 ], [ 85.2989244, 27.6788418 ], [ 85.2988118, 27.6785639 ], [ 85.2985463, 27.6781601 ], [ 85.298329, 27.6777016 ], [ 85.2981412, 27.6774166 ], [ 85.2978301, 27.6770959 ], [ 85.2975458, 27.6768608 ], [ 85.2971971, 27.676571 ], [ 85.2967814, 27.6762765 ], [ 85.2963281, 27.6759558 ], [ 85.2957165, 27.6755924 ], [ 85.2953732, 27.6754118 ], [ 85.2950567, 27.6752669 ], [ 85.2947751, 27.6751387 ], [ 85.2944237, 27.6750223 ], [ 85.2941099, 27.6749011 ], [ 85.2937397, 27.6747586 ], [ 85.2934608, 27.6746351 ], [ 85.2932355, 27.6745258 ], [ 85.2930585, 27.6744118 ], [ 85.2928734, 27.6742693 ], [ 85.2927346, 27.6741339 ], [ 85.2925864, 27.6739747 ], [ 85.2924366, 27.6737747 ], [ 85.2922184, 27.673444 ], [ 85.2920687, 27.6731814 ], [ 85.2919802, 27.6730032 ], [ 85.291881, 27.6728179 ], [ 85.2918059, 27.672654 ], [ 85.2917522, 27.6724782 ], [ 85.2917093, 27.6723048 ], [ 85.2916986, 27.672091 ], [ 85.2917254, 27.6718868 ], [ 85.2917844, 27.6716255 ], [ 85.2918488, 27.6713855 ], [ 85.2919722, 27.671072 ], [ 85.2921063, 27.6707584 ], [ 85.2922645, 27.6704211 ], [ 85.2925058, 27.6699586 ], [ 85.2925891, 27.6698296 ], [ 85.2927205, 27.6696824 ], [ 85.2928492, 27.6695303 ], [ 85.2930289, 27.669402 ], [ 85.2934098, 27.6692001 ], [ 85.2938685, 27.6690956 ], [ 85.2941152, 27.6690267 ], [ 85.2943727, 27.6689721 ], [ 85.2945632, 27.6689483 ], [ 85.2947831, 27.6689364 ], [ 85.2950336, 27.6689479 ], [ 85.2952525, 27.6689388 ], [ 85.295451, 27.6689222 ], [ 85.295746, 27.6688961 ], [ 85.2960411, 27.6688557 ], [ 85.296599, 27.6687678 ], [ 85.2968806, 27.6687155 ], [ 85.2970952, 27.66863 ], [ 85.2971783, 27.6685754 ], [ 85.2972481, 27.6685017 ], [ 85.2974251, 27.6682689 ], [ 85.297586, 27.6680338 ], [ 85.2977335, 27.6677891 ], [ 85.2977979, 27.6676442 ], [ 85.2978328, 27.6674114 ], [ 85.2978408, 27.6672475 ], [ 85.2978167, 27.6670622 ], [ 85.2977952, 27.6668769 ], [ 85.2977443, 27.6667225 ], [ 85.2974519, 27.6664184 ], [ 85.2970147, 27.6659956 ], [ 85.2967438, 27.6656511 ], [ 85.2964984, 27.6652651 ], [ 85.2964528, 27.6651867 ], [ 85.2964193, 27.6650952 ], [ 85.2963924, 27.6649479 ], [ 85.2963576, 27.6647579 ], [ 85.2963079, 27.6643172 ], [ 85.2963012, 27.6641141 ], [ 85.2963066, 27.664044 ], [ 85.2963113, 27.6638771 ], [ 85.2963515, 27.6636093 ], [ 85.296436, 27.6633183 ], [ 85.296452, 27.6632326 ], [ 85.296512, 27.6629523 ], [ 85.2965212, 27.6628242 ], [ 85.2965547, 27.6626937 ], [ 85.2966547, 27.662408 ], [ 85.2968757, 27.6619661 ], [ 85.2970362, 27.6616767 ], [ 85.2970563, 27.6616054 ], [ 85.2970657, 27.6615128 ], [ 85.297063, 27.6612871 ], [ 85.2970549, 27.6611873 ], [ 85.297012, 27.6610709 ], [ 85.2969825, 27.661027 ], [ 85.2969235, 27.6609664 ], [ 85.2967894, 27.6608761 ], [ 85.296658, 27.6608286 ], [ 85.296603, 27.660812 ], [ 85.2965534, 27.6608144 ], [ 85.2964675, 27.6608595 ], [ 85.2963187, 27.6609783 ], [ 85.2962637, 27.6610258 ], [ 85.2961993, 27.6610495 ], [ 85.2961376, 27.6610448 ], [ 85.2960733, 27.6610234 ], [ 85.2958721, 27.6608476 ], [ 85.2955824, 27.6605958 ], [ 85.2954242, 27.6604936 ], [ 85.2953678, 27.6604687 ], [ 85.295274, 27.6604366 ], [ 85.2950487, 27.6603796 ], [ 85.2948622, 27.6602941 ], [ 85.2947005, 27.6602092 ], [ 85.2945898, 27.6601632 ], [ 85.2944768, 27.6600863 ], [ 85.2943608, 27.65997 ], [ 85.2943084, 27.6598962 ], [ 85.2942722, 27.6598213 ], [ 85.2942467, 27.6596717 ], [ 85.2942185, 27.6596004 ], [ 85.2941689, 27.6595196 ], [ 85.2940714, 27.6593925 ], [ 85.2939537, 27.6592388 ], [ 85.2937676, 27.6588929 ], [ 85.293666, 27.6587315 ], [ 85.2936479, 27.6586851 ], [ 85.2936319, 27.6586406 ], [ 85.2936244, 27.6585788 ], [ 85.2936137, 27.6583912 ], [ 85.2936246, 27.6581119 ], [ 85.2936056, 27.6578281 ], [ 85.2936056, 27.6576119 ], [ 85.2936164, 27.6574836 ], [ 85.2936351, 27.6573696 ], [ 85.2937075, 27.6572413 ], [ 85.2937397, 27.6571368 ], [ 85.293732, 27.6570289 ], [ 85.2937005, 27.656952 ], [ 85.2936807, 27.6568493 ], [ 85.2935788, 27.65655 ], [ 85.2934338, 27.6562035 ], [ 85.2933589, 27.6560859 ], [ 85.293224, 27.6558745 ], [ 85.2930679, 27.6556943 ], [ 85.2928073, 27.6554806 ], [ 85.2925101, 27.6552652 ], [ 85.292402, 27.6551869 ], [ 85.2916101, 27.6544902 ], [ 85.2914652, 27.6543215 ], [ 85.2912362, 27.6540242 ], [ 85.291087, 27.6538083 ], [ 85.290969, 27.6536646 ], [ 85.2908, 27.6534971 ], [ 85.2906284, 27.6533676 ], [ 85.2903347, 27.6532476 ], [ 85.2900343, 27.6531466 ], [ 85.2896856, 27.6529875 ], [ 85.2893355, 27.6528045 ], [ 85.2890204, 27.6526002 ], [ 85.28872, 27.6523971 ], [ 85.2884611, 27.6521785 ], [ 85.2880776, 27.6517793 ], [ 85.2879059, 27.6516059 ], [ 85.2877343, 27.6513731 ], [ 85.287458, 27.6509763 ], [ 85.2872944, 27.6507126 ], [ 85.2871683, 27.6504774 ], [ 85.2870932, 27.6503063 ], [ 85.2870262, 27.6501067 ], [ 85.2869086, 27.6496703 ], [ 85.286825, 27.6492205 ], [ 85.2867714, 27.6488499 ], [ 85.2866598, 27.6482555 ], [ 85.2866265, 27.6480444 ], [ 85.2866305, 27.6477818 ], [ 85.2866694, 27.6475574 ], [ 85.286774, 27.647315 ], [ 85.2870718, 27.6468493 ], [ 85.2872461, 27.6465571 ], [ 85.2874339, 27.6461603 ], [ 85.2875886, 27.6455249 ], [ 85.2876082, 27.6452289 ], [ 85.2876143, 27.6448707 ], [ 85.2875707, 27.6446848 ], [ 85.2874425, 27.6444901 ], [ 85.2872354, 27.6443023 ], [ 85.2870315, 27.644168 ], [ 85.2869189, 27.6441359 ], [ 85.2867995, 27.6441347 ], [ 85.2863168, 27.6443303 ], [ 85.2858192, 27.6445137 ], [ 85.2854673, 27.644642 ], [ 85.284588, 27.6449675 ], [ 85.2840485, 27.6451028 ], [ 85.2834239, 27.6452401 ], [ 85.2831671, 27.6453009 ], [ 85.2830873, 27.6453002 ], [ 85.2829546, 27.6452717 ], [ 85.2827775, 27.6452075 ], [ 85.2825415, 27.6450816 ], [ 85.2824946, 27.6450364 ], [ 85.2824543, 27.6449824 ], [ 85.2824262, 27.6448891 ], [ 85.2823994, 27.6447371 ], [ 85.2823672, 27.6445589 ], [ 85.282347, 27.6441909 ], [ 85.2823255, 27.6438205 ], [ 85.2824017, 27.6435059 ], [ 85.2827476, 27.6427804 ], [ 85.2830566, 27.6421948 ], [ 85.2831577, 27.6419 ], [ 85.283577, 27.6412638 ], [ 85.284032, 27.6406775 ], [ 85.2846067, 27.6397381 ], [ 85.2851191, 27.638987 ], [ 85.2853927, 27.6386092 ], [ 85.2856904, 27.6382646 ], [ 85.2861786, 27.6378203 ], [ 85.2866641, 27.6374401 ], [ 85.2870181, 27.6372001 ], [ 85.2874116, 27.636935 ], [ 85.2876082, 27.6368199 ], [ 85.2878121, 27.6366773 ], [ 85.2879381, 27.6366156 ], [ 85.2881178, 27.6365799 ], [ 85.2882895, 27.636568 ], [ 85.2884799, 27.6365181 ], [ 85.288606, 27.6364516 ], [ 85.2887213, 27.6363613 ], [ 85.2889654, 27.6361617 ], [ 85.2891044, 27.6360519 ], [ 85.289408, 27.6357886 ], [ 85.2896869, 27.635589 ], [ 85.2900276, 27.6353633 ], [ 85.2906498, 27.635033 ], [ 85.2911299, 27.6348358 ], [ 85.2916342, 27.6346766 ], [ 85.291889, 27.6346362 ], [ 85.2921036, 27.634591 ], [ 85.2923155, 27.6345245 ], [ 85.2925381, 27.6344128 ], [ 85.2927098, 27.6342987 ], [ 85.2928385, 27.6342084 ], [ 85.2929243, 27.6341063 ], [ 85.2930129, 27.6339423 ], [ 85.293045, 27.633833 ], [ 85.2930585, 27.6337094 ], [ 85.293045, 27.6335455 ], [ 85.2929914, 27.6333815 ], [ 85.2928697, 27.6331549 ], [ 85.2928509, 27.6331098 ], [ 85.2928358, 27.6329562 ], [ 85.292851, 27.6328116 ], [ 85.2929712, 27.6320438 ], [ 85.29316, 27.6309563 ], [ 85.2932006, 27.6300083 ], [ 85.2932201, 27.6296635 ], [ 85.293263, 27.6292457 ], [ 85.2936233, 27.6286833 ], [ 85.2938205, 27.6283794 ], [ 85.2941377, 27.6280832 ], [ 85.294362, 27.6279017 ], [ 85.2945873, 27.6276974 ], [ 85.2947241, 27.6274954 ], [ 85.2948559, 27.6271905 ], [ 85.2949306, 27.6270177 ], [ 85.2949843, 27.6268157 ], [ 85.2949716, 27.6266742 ], [ 85.2948797, 27.6265733 ], [ 85.2947965, 27.6265234 ], [ 85.2945793, 27.6265163 ], [ 85.294362, 27.6265305 ], [ 85.2939892, 27.6265448 ], [ 85.2933964, 27.6264616 ], [ 85.2930343, 27.6263499 ], [ 85.2928546, 27.6262739 ], [ 85.2927044, 27.6261408 ], [ 85.2926239, 27.6260291 ], [ 85.2926132, 27.625858 ], [ 85.2928125, 27.6251259 ], [ 85.2928987, 27.624688 ], [ 85.2929887, 27.6244155 ], [ 85.293037, 27.6241636 ], [ 85.2930719, 27.6236978 ], [ 85.2930338, 27.6232199 ], [ 85.2930785, 27.6227507 ], [ 85.2931449, 27.6225718 ], [ 85.2933832, 27.6223043 ], [ 85.2934232, 27.6221864 ], [ 85.2934189, 27.6220684 ], [ 85.2933964, 27.6218537 ], [ 85.2933589, 27.6216255 ], [ 85.2933025, 27.6213617 ], [ 85.2932328, 27.6212191 ], [ 85.2928519, 27.6206844 ], [ 85.2923852, 27.620221 ], [ 85.2919266, 27.6196506 ], [ 85.2918032, 27.6194558 ], [ 85.2917469, 27.619287 ], [ 85.2916959, 27.619085 ], [ 85.2916825, 27.6188331 ], [ 85.2917683, 27.6183839 ], [ 85.2919496, 27.6179254 ], [ 85.2920853, 27.6172048 ], [ 85.29214, 27.61661 ], [ 85.2922535, 27.6161422 ], [ 85.2923222, 27.6157849 ], [ 85.2924508, 27.6154049 ], [ 85.2930596, 27.6142643 ], [ 85.2933074, 27.6138837 ], [ 85.2934125, 27.6137685 ], [ 85.2936915, 27.6135047 ], [ 85.2937987, 27.6133027 ], [ 85.2939006, 27.6130959 ], [ 85.293914, 27.6128677 ], [ 85.2938417, 27.6125944 ], [ 85.2935278, 27.6120929 ], [ 85.2932234, 27.6119456 ], [ 85.2928559, 27.6119016 ], [ 85.2923316, 27.6119361 ], [ 85.2919748, 27.612018 ], [ 85.2916677, 27.6121571 ], [ 85.2914062, 27.6122759 ], [ 85.2912252, 27.6123235 ], [ 85.2910602, 27.612352 ], [ 85.2908497, 27.612346 ], [ 85.2906217, 27.6122973 ], [ 85.2904339, 27.612245 ], [ 85.2902287, 27.6121238 ], [ 85.2901241, 27.6120074 ], [ 85.290041, 27.6118172 ], [ 85.2900463, 27.6116247 ], [ 85.2900812, 27.6114369 ], [ 85.2901676, 27.6112244 ], [ 85.2902515, 27.6110091 ], [ 85.2902864, 27.6109271 ], [ 85.290336, 27.6108166 ], [ 85.2904285, 27.610731 ], [ 85.2905881, 27.6106502 ], [ 85.2909328, 27.6106205 ], [ 85.2913056, 27.6105742 ], [ 85.2917281, 27.6104209 ], [ 85.2919574, 27.6102391 ], [ 85.2921438, 27.6100489 ], [ 85.2923356, 27.6098612 ], [ 85.292577, 27.609551 ], [ 85.2927741, 27.6093394 ], [ 85.2933508, 27.6088534 ], [ 85.2936003, 27.6086157 ], [ 85.2938792, 27.6083139 ], [ 85.2941233, 27.6080691 ], [ 85.2942064, 27.6078884 ], [ 85.2942386, 27.607684 ], [ 85.2942172, 27.6074606 ], [ 85.2942091, 27.6072633 ], [ 85.2941662, 27.6070233 ], [ 85.2941246, 27.6065591 ], [ 85.2941072, 27.6062318 ], [ 85.2940991, 27.6059204 ], [ 85.2941313, 27.6055258 ], [ 85.2941394, 27.6054331 ], [ 85.2941287, 27.605369 ], [ 85.2941126, 27.6052775 ], [ 85.2940938, 27.605199 ], [ 85.2940589, 27.6050849 ], [ 85.2940536, 27.6050053 ], [ 85.2940415, 27.6048983 ], [ 85.2940442, 27.6048389 ], [ 85.2940495, 27.6047878 ], [ 85.2940576, 27.6047545 ], [ 85.2940656, 27.6047337 ], [ 85.2940898, 27.60471 ], [ 85.2941179, 27.6046714 ], [ 85.294138, 27.6046262 ], [ 85.2941468, 27.6045864 ], [ 85.2941702, 27.6045323 ], [ 85.2941877, 27.6045062 ], [ 85.2942105, 27.6044764 ], [ 85.2942373, 27.6044372 ], [ 85.2942587, 27.6043956 ], [ 85.2942681, 27.6043635 ], [ 85.2942755, 27.6043392 ], [ 85.2942849, 27.6043053 ], [ 85.2943023, 27.6042411 ], [ 85.2943204, 27.604193 ], [ 85.2943285, 27.6041585 ], [ 85.2943245, 27.6041116 ], [ 85.294307, 27.6039678 ], [ 85.2942842, 27.6036671 ], [ 85.2942091, 27.6034413 ], [ 85.2939409, 27.6031608 ], [ 85.2934487, 27.6028934 ], [ 85.2931724, 27.6028221 ], [ 85.2928881, 27.6027698 ], [ 85.2927379, 27.602689 ], [ 85.2925703, 27.60255 ], [ 85.292282, 27.6023717 ], [ 85.2919601, 27.6022386 ], [ 85.291716, 27.6021376 ], [ 85.2915591, 27.6020983 ], [ 85.2913901, 27.6019557 ], [ 85.2912828, 27.6017727 ], [ 85.2911541, 27.6014471 ], [ 85.2910897, 27.6010454 ], [ 85.2911139, 27.6004796 ], [ 85.2911648, 27.6002372 ], [ 85.2912775, 27.5999924 ], [ 85.2915993, 27.599593 ], [ 85.2916557, 27.5995027 ], [ 85.2917522, 27.5992412 ], [ 85.2917469, 27.5986731 ], [ 85.2917844, 27.5982405 ], [ 85.2918386, 27.5978577 ], [ 85.2918515, 27.5973206 ], [ 85.2918354, 27.597241 ], [ 85.2918139, 27.5972006 ], [ 85.2917656, 27.5971269 ], [ 85.2916463, 27.5970318 ], [ 85.2915671, 27.5970068 ], [ 85.2914666, 27.5969878 ], [ 85.2913392, 27.5969961 ], [ 85.2910414, 27.5971043 ], [ 85.2908376, 27.5971899 ], [ 85.2906177, 27.5973039 ], [ 85.2901536, 27.5976296 ], [ 85.2899203, 27.5977461 ], [ 85.2896333, 27.5978222 ], [ 85.2890941, 27.5979767 ], [ 85.2886409, 27.5980694 ], [ 85.2881017, 27.5981312 ], [ 85.2876136, 27.598029 ], [ 85.2872622, 27.5977556 ], [ 85.2869001, 27.5974062 ], [ 85.2866238, 27.5970972 ], [ 85.286479, 27.5967002 ], [ 85.2863717, 27.5961915 ], [ 85.2862859, 27.5955022 ], [ 85.2861679, 27.5949174 ], [ 85.2860565, 27.594411 ], [ 85.285736, 27.593629 ], [ 85.2854119, 27.593307 ], [ 85.2850333, 27.5932249 ], [ 85.2845746, 27.5933342 ], [ 85.2842125, 27.5935363 ], [ 85.2840098, 27.5938557 ], [ 85.2839631, 27.5940854 ], [ 85.28401, 27.5942946 ], [ 85.284175, 27.5944301 ], [ 85.2845773, 27.5946226 ], [ 85.2846497, 27.594751 ], [ 85.2846122, 27.5948841 ], [ 85.2843815, 27.5953881 ], [ 85.2840516, 27.5958088 ], [ 85.2835366, 27.5960584 ], [ 85.2831396, 27.5961416 ], [ 85.2827373, 27.5961226 ], [ 85.2823269, 27.5960774 ], [ 85.2815545, 27.5959728 ], [ 85.2806264, 27.5958516 ], [ 85.2800524, 27.5956685 ], [ 85.2798191, 27.595457 ], [ 85.2797064, 27.5952335 ], [ 85.2797332, 27.5949673 ], [ 85.2800497, 27.5945157 ], [ 85.2805915, 27.5939071 ], [ 85.2814391, 27.5930585 ], [ 85.281643, 27.5926591 ], [ 85.2817342, 27.5921671 ], [ 85.2816859, 27.5916536 ], [ 85.2815437, 27.5912495 ], [ 85.2813372, 27.590881 ], [ 85.2810931, 27.5906671 ], [ 85.280782, 27.5904579 ], [ 85.2804065, 27.5902178 ], [ 85.2799129, 27.5898731 ], [ 85.2796944, 27.5896437 ], [ 85.279358, 27.589161 ], [ 85.2794113, 27.5888207 ], [ 85.2796796, 27.5884527 ], [ 85.2802417, 27.588081 ], [ 85.2811366, 27.5878498 ], [ 85.2820426, 27.5877003 ], [ 85.2830004, 27.5876316 ], [ 85.2836412, 27.5875862 ], [ 85.2841991, 27.5874816 ], [ 85.2846269, 27.5872445 ], [ 85.2851111, 27.5868302 ], [ 85.2851915, 27.5865378 ], [ 85.2851728, 27.5862026 ], [ 85.2850226, 27.5858841 ], [ 85.2848526, 27.585612 ], [ 85.284301, 27.5853539 ], [ 85.2837351, 27.5852113 ], [ 85.2832389, 27.5852232 ], [ 85.2828366, 27.5852422 ], [ 85.2822518, 27.5854229 ], [ 85.2816403, 27.5854894 ], [ 85.2810556, 27.5855084 ], [ 85.2806988, 27.5854466 ], [ 85.280275, 27.585216 ], [ 85.2800685, 27.5849831 ], [ 85.279988, 27.5845242 ], [ 85.2798781, 27.5840583 ], [ 85.2796742, 27.5837017 ], [ 85.2794275, 27.5834402 ], [ 85.2790681, 27.5832333 ], [ 85.2785665, 27.583086 ], [ 85.2782768, 27.5830812 ], [ 85.277743, 27.5830883 ], [ 85.2772683, 27.583036 ], [ 85.276992, 27.5828863 ], [ 85.2766621, 27.582557 ], [ 85.2764824, 27.5822634 ], [ 85.2762222, 27.5818735 ], [ 85.2758655, 27.5814028 ], [ 85.2754819, 27.5810367 ], [ 85.275152, 27.5808251 ], [ 85.2747953, 27.5805945 ], [ 85.27449, 27.5803696 ], [ 85.2741945, 27.5801023 ], [ 85.2739786, 27.579911 ], [ 85.2738391, 27.5797707 ], [ 85.2736258, 27.5796102 ], [ 85.273241, 27.5793558 ], [ 85.2730572, 27.5791514 ], [ 85.2729607, 27.5789945 ], [ 85.2728815, 27.5788031 ], [ 85.2727528, 27.5784833 ], [ 85.2726522, 27.5781362 ], [ 85.2724966, 27.577606 ], [ 85.2722713, 27.5770806 ], [ 85.2721533, 27.5767692 ], [ 85.2719548, 27.5764791 ], [ 85.2717017, 27.5762542 ], [ 85.2713607, 27.5759893 ], [ 85.2709825, 27.5757129 ], [ 85.2706513, 27.5754996 ], [ 85.2701014, 27.5751738 ], [ 85.2694451, 27.5748963 ], [ 85.2689358, 27.5746546 ], [ 85.2686772, 27.5744558 ], [ 85.2684545, 27.5742323 ], [ 85.2682829, 27.5739589 ], [ 85.2681917, 27.5736784 ], [ 85.2681059, 27.5733217 ], [ 85.2679425, 27.5726486 ], [ 85.2678677, 27.5724583 ], [ 85.2678138, 27.5723213 ], [ 85.2677025, 27.5720203 ], [ 85.2675562, 27.5717123 ], [ 85.2673588, 27.57137 ], [ 85.26717, 27.5709895 ], [ 85.266981, 27.5707459 ], [ 85.2666548, 27.5703807 ], [ 85.2664429, 27.5702309 ], [ 85.2660325, 27.5701429 ], [ 85.2655739, 27.5701239 ], [ 85.2651098, 27.5702285 ], [ 85.2646798, 27.5703424 ], [ 85.2643776, 27.5704805 ], [ 85.2640423, 27.5706137 ], [ 85.2635783, 27.5707397 ], [ 85.2633235, 27.5707516 ], [ 85.263015, 27.5706826 ], [ 85.2626047, 27.5704282 ], [ 85.2621755, 27.5701358 ], [ 85.2617437, 27.5699598 ], [ 85.2611938, 27.5698956 ], [ 85.2607566, 27.5700335 ], [ 85.2604803, 27.5701928 ], [ 85.2601424, 27.5704924 ], [ 85.2598554, 27.5708039 ], [ 85.2593833, 27.5710797 ], [ 85.2591151, 27.5712104 ], [ 85.258694, 27.5713341 ], [ 85.258179, 27.5714244 ], [ 85.258061, 27.5714339 ], [ 85.2579457, 27.5714054 ], [ 85.2578008, 27.571239 ], [ 85.2577002, 27.5711213 ], [ 85.257538, 27.5708966 ], [ 85.2573609, 27.5706398 ], [ 85.2571061, 27.570433 ], [ 85.256854, 27.5703474 ], [ 85.2565187, 27.5702974 ], [ 85.2560199, 27.5703464 ], [ 85.2555749, 27.5703562 ], [ 85.2554088, 27.5703424 ], [ 85.2552737, 27.5702561 ], [ 85.2551132, 27.5700692 ], [ 85.2549903, 27.5698989 ], [ 85.2548066, 27.5696231 ], [ 85.254656, 27.5694887 ], [ 85.2544545, 27.56942 ], [ 85.2541664, 27.5693274 ], [ 85.2538204, 27.5691942 ], [ 85.2533805, 27.5689184 ], [ 85.2531928, 27.5686569 ], [ 85.2529567, 27.5682313 ], [ 85.2527046, 27.5676939 ], [ 85.2525365, 27.5671101 ], [ 85.2523649, 27.5667448 ], [ 85.2519357, 27.5661968 ], [ 85.2511227, 27.5658587 ], [ 85.2510999, 27.565506 ], [ 85.2510994, 27.5654986 ], [ 85.2510858, 27.565289 ], [ 85.2510703, 27.5650504 ], [ 85.25065, 27.5648145 ], [ 85.2505803, 27.5645696 ], [ 85.2505615, 27.5642415 ], [ 85.2506769, 27.563949 ], [ 85.2508831, 27.563561 ], [ 85.2509558, 27.5631263 ], [ 85.2511007, 27.5626745 ], [ 85.2511918, 27.5621419 ], [ 85.2511758, 27.5615617 ], [ 85.2510819, 27.5610671 ], [ 85.2510041, 27.5606439 ], [ 85.2508137, 27.5602896 ], [ 85.2503295, 27.559978 ], [ 85.25006, 27.5599305 ], [ 85.2495933, 27.5597878 ], [ 85.2492687, 27.5595905 ], [ 85.2489951, 27.5593218 ], [ 85.2487349, 27.5589841 ], [ 85.2484748, 27.5586036 ], [ 85.2482173, 27.5582898 ], [ 85.2478927, 27.557857 ], [ 85.2475467, 27.5571698 ], [ 85.2474843, 27.5566172 ], [ 85.2474314, 27.5557145 ], [ 85.2474421, 27.555208 ], [ 85.2472758, 27.5548085 ], [ 85.2469245, 27.5544351 ], [ 85.2465329, 27.5541807 ], [ 85.246034, 27.5539596 ], [ 85.2458221, 27.5537004 ], [ 85.2457604, 27.5534602 ], [ 85.2457818, 27.5531701 ], [ 85.2459428, 27.5527063 ], [ 85.2461681, 27.5523401 ], [ 85.2467608, 27.5518574 ], [ 85.2471283, 27.5513628 ], [ 85.2473161, 27.5507326 ], [ 85.2472597, 27.5505233 ], [ 85.2470049, 27.550345 ], [ 85.2465821, 27.550132 ], [ 85.2460849, 27.549905 ], [ 85.2456933, 27.5496625 ], [ 85.2454412, 27.5493248 ], [ 85.2451783, 27.5488943 ], [ 85.2448404, 27.5486161 ], [ 85.2437702, 27.547867 ], [ 85.2433196, 27.5477291 ], [ 85.2427751, 27.5477742 ], [ 85.2422333, 27.547974 ], [ 85.2412569, 27.5484687 ], [ 85.2406025, 27.5485352 ], [ 85.240007, 27.5482499 ], [ 85.2394813, 27.5476649 ], [ 85.2388805, 27.5467849 ], [ 85.2382153, 27.5458004 ], [ 85.2377647, 27.5449585 ], [ 85.2374563, 27.5444401 ], [ 85.2371103, 27.5440905 ], [ 85.2367616, 27.5439145 ], [ 85.2362305, 27.543798 ], [ 85.2358711, 27.5436838 ], [ 85.2357379, 27.5435587 ], [ 85.2356914, 27.543515 ], [ 85.2356055, 27.5432201 ], [ 85.2355224, 27.5426231 ], [ 85.2353266, 27.5421903 ], [ 85.2349538, 27.5416837 ], [ 85.2344629, 27.5412937 ], [ 85.2341706, 27.541025 ], [ 85.2340659, 27.5408014 ], [ 85.2340177, 27.5404637 ], [ 85.2338809, 27.5399191 ], [ 85.2336127, 27.5392127 ], [ 85.2332613, 27.5387228 ], [ 85.2330275, 27.5384758 ], [ 85.2330159, 27.5384635 ], [ 85.2323413, 27.5381876 ], [ 85.2317941, 27.5379617 ], [ 85.231542, 27.5377738 ], [ 85.2313891, 27.5374099 ], [ 85.2314213, 27.5371055 ], [ 85.2315313, 27.5367916 ], [ 85.2316077, 27.5364989 ], [ 85.2317244, 27.5363397 ], [ 85.2319544, 27.5361896 ], [ 85.2323869, 27.5361018 ], [ 85.2333276, 27.5360014 ], [ 85.2337307, 27.5358188 ], [ 85.2341142, 27.5355853 ], [ 85.2345577, 27.5352326 ], [ 85.2346078, 27.5351928 ], [ 85.2356779, 27.5344414 ], [ 85.2365899, 27.5339232 ], [ 85.2375796, 27.5334285 ], [ 85.2384084, 27.5331217 ], [ 85.2390119, 27.5330147 ], [ 85.2394304, 27.5330408 ], [ 85.2397844, 27.5331479 ], [ 85.2400178, 27.5333548 ], [ 85.2403745, 27.5336997 ], [ 85.2406132, 27.5338019 ], [ 85.2408171, 27.5338043 ], [ 85.241088, 27.533702 ], [ 85.2416003, 27.533381 ], [ 85.2421635, 27.5331193 ], [ 85.2426624, 27.5330289 ], [ 85.2430487, 27.5330432 ], [ 85.2433464, 27.5331526 ], [ 85.2435955, 27.5333475 ], [ 85.2439553, 27.5334143 ], [ 85.2444568, 27.5333239 ], [ 85.2451327, 27.5330123 ], [ 85.2457738, 27.5326199 ], [ 85.2460232, 27.5322131 ], [ 85.2460796, 27.5317969 ], [ 85.246042, 27.5310905 ], [ 85.2458472, 27.5297569 ], [ 85.2457979, 27.5293756 ], [ 85.2458033, 27.5291306 ], [ 85.2458608, 27.5290406 ], [ 85.2459294, 27.5289332 ], [ 85.2463451, 27.5287096 ], [ 85.247013, 27.5284813 ], [ 85.2477694, 27.5284004 ], [ 85.248346, 27.5284789 ], [ 85.2489555, 27.5287354 ], [ 85.2494913, 27.5288999 ], [ 85.2501458, 27.528957 ], [ 85.2507037, 27.5288428 ], [ 85.251098, 27.528643 ], [ 85.251283, 27.5284741 ], [ 85.251393, 27.5280056 ], [ 85.2513796, 27.5279152 ], [ 85.251275, 27.527732 ], [ 85.2508244, 27.5271945 ], [ 85.2507815, 27.5271041 ], [ 85.2507547, 27.5269804 ], [ 85.2507305, 27.5266355 ], [ 85.2506903, 27.5263144 ], [ 85.2506179, 27.5259671 ], [ 85.2505776, 27.5257364 ], [ 85.2504998, 27.525313 ], [ 85.250473, 27.5248421 ], [ 85.250465, 27.5246565 ], [ 85.2504891, 27.5245471 ], [ 85.2505374, 27.5245067 ], [ 85.2506554, 27.524333 ], [ 85.2507171, 27.5242094 ], [ 85.2507761, 27.5240286 ], [ 85.2507949, 27.5238193 ], [ 85.2507949, 27.5237527 ], [ 85.2507761, 27.523648 ], [ 85.2507681, 27.5235386 ], [ 85.2508378, 27.5233079 ], [ 85.2508727, 27.5231937 ], [ 85.2508754, 27.5230581 ], [ 85.2508539, 27.5229725 ], [ 85.2508056, 27.5228963 ], [ 85.2507091, 27.522806 ], [ 85.2507091, 27.5227251 ], [ 85.2507439, 27.522618 ], [ 85.2508204, 27.5225003 ], [ 85.2508526, 27.5224468 ], [ 85.2508606, 27.5223362 ], [ 85.2508552, 27.5222719 ], [ 85.2508284, 27.5222077 ], [ 85.2507627, 27.5221102 ], [ 85.2506608, 27.5219925 ], [ 85.2506018, 27.5219282 ], [ 85.2504127, 27.5217391 ], [ 85.250351, 27.5216939 ], [ 85.2502933, 27.5215881 ], [ 85.2502853, 27.5215381 ], [ 85.2502853, 27.5214608 ], [ 85.2502772, 27.5213728 ], [ 85.2502252, 27.5212805 ], [ 85.2499707, 27.5210304 ], [ 85.2496387, 27.5208191 ], [ 85.2467556, 27.5197577 ], [ 85.246265, 27.5196229 ], [ 85.245663, 27.5195119 ], [ 85.2439794, 27.5192879 ], [ 85.2431586, 27.5191547 ], [ 85.2430138, 27.5190738 ], [ 85.2427778, 27.5188954 ], [ 85.2423298, 27.5184339 ], [ 85.242185, 27.5183055 ], [ 85.2419972, 27.5181746 ], [ 85.2412301, 27.5177084 ], [ 85.2407983, 27.5173456 ], [ 85.2406012, 27.5170483 ], [ 85.2405542, 27.5169674 ], [ 85.2405314, 27.5169067 ], [ 85.240463, 27.5166546 ], [ 85.2404617, 27.5165606 ], [ 85.240522, 27.5164072 ], [ 85.2406995, 27.5161264 ], [ 85.241444, 27.514149 ], [ 85.2416296, 27.5136449 ], [ 85.2417391, 27.5131662 ], [ 85.2416809, 27.5127281 ], [ 85.2412854, 27.5123951 ], [ 85.2410004, 27.5121436 ], [ 85.2406613, 27.5118938 ], [ 85.2401919, 27.5117759 ], [ 85.2394025, 27.511665 ], [ 85.2387476, 27.5115087 ], [ 85.2382505, 27.5113029 ], [ 85.2377593, 27.5109287 ], [ 85.2374589, 27.5106718 ], [ 85.23707, 27.5102947 ], [ 85.2368018, 27.5099295 ], [ 85.2366275, 27.5095073 ], [ 85.2365805, 27.5093015 ], [ 85.2365327, 27.5088783 ], [ 85.2366147, 27.5085499 ], [ 85.2366101, 27.5083139 ], [ 85.236506, 27.5081455 ], [ 85.2361527, 27.5078646 ], [ 85.2356096, 27.5074685 ], [ 85.2354339, 27.5072508 ], [ 85.2351925, 27.5069404 ], [ 85.2350718, 27.5066882 ], [ 85.2345142, 27.5054311 ], [ 85.2345015, 27.5051142 ], [ 85.2345252, 27.5047935 ], [ 85.234645, 27.5044973 ], [ 85.2349457, 27.5040673 ], [ 85.2354661, 27.5034967 ], [ 85.2356324, 27.503285 ], [ 85.2357879, 27.5030804 ], [ 85.2359033, 27.5028139 ], [ 85.236091, 27.5023452 ], [ 85.2362305, 27.5019646 ], [ 85.2364263, 27.5013484 ], [ 85.2365309, 27.5011248 ], [ 85.2366596, 27.5009202 ], [ 85.2369064, 27.5006965 ], [ 85.2371532, 27.5004919 ], [ 85.2373946, 27.5003539 ], [ 85.2377111, 27.5001541 ], [ 85.2381831, 27.4999971 ], [ 85.2385533, 27.5000208 ], [ 85.2391273, 27.5001969 ], [ 85.2396107, 27.5004047 ], [ 85.2398863, 27.5005942 ], [ 85.2401465, 27.5006727 ], [ 85.2405059, 27.5007037 ], [ 85.2408197, 27.500706 ], [ 85.2415547, 27.5006549 ], [ 85.2419235, 27.5005621 ], [ 85.2423432, 27.5003967 ], [ 85.2426356, 27.5001612 ], [ 85.242826, 27.4999257 ], [ 85.2429736, 27.4996211 ], [ 85.2431238, 27.4991572 ], [ 85.2432901, 27.4987313 ], [ 85.2434322, 27.4984553 ], [ 85.2436897, 27.4981389 ], [ 85.2441779, 27.4977464 ], [ 85.2444005, 27.4976274 ], [ 85.2453605, 27.4972 ], [ 85.2460366, 27.4969612 ], [ 85.2463424, 27.4967947 ], [ 85.2467529, 27.4965477 ], [ 85.2473003, 27.4961384 ], [ 85.2476991, 27.4957638 ], [ 85.2478947, 27.4954931 ], [ 85.2480268, 27.495291 ], [ 85.2480859, 27.4949864 ], [ 85.2481073, 27.4946795 ], [ 85.2480724, 27.4944059 ], [ 85.2479705, 27.4942584 ], [ 85.2478445, 27.4939919 ], [ 85.2477533, 27.493911 ], [ 85.2474126, 27.4936398 ], [ 85.2472973, 27.4935327 ], [ 85.24719, 27.493428 ], [ 85.247139, 27.4932995 ], [ 85.247131, 27.4931806 ], [ 85.2471712, 27.4929569 ], [ 85.2472302, 27.4927071 ], [ 85.2472705, 27.4925596 ], [ 85.2473026, 27.4922907 ], [ 85.2472839, 27.4918386 ], [ 85.2471498, 27.4915055 ], [ 85.2467743, 27.4905681 ], [ 85.246667, 27.4903349 ], [ 85.2465114, 27.490028 ], [ 85.2460189, 27.4894014 ], [ 85.2457741, 27.4890384 ], [ 85.2450308, 27.4881054 ], [ 85.2446687, 27.4876747 ], [ 85.2445455, 27.4874381 ], [ 85.2443906, 27.4869669 ], [ 85.2443361, 27.4867825 ], [ 85.2443334, 27.4866492 ], [ 85.244379, 27.4865255 ], [ 85.2445185, 27.486309 ], [ 85.2446473, 27.4862376 ], [ 85.2447492, 27.4861971 ], [ 85.2448484, 27.4861876 ], [ 85.244998, 27.4861732 ], [ 85.2457255, 27.4860853 ], [ 85.2457979, 27.4860567 ], [ 85.2458543, 27.4860187 ], [ 85.2459079, 27.4859473 ], [ 85.2459079, 27.4858878 ], [ 85.2458757, 27.4857807 ], [ 85.2458355, 27.4857141 ], [ 85.2458811, 27.4853833 ], [ 85.2459562, 27.4852287 ], [ 85.2468601, 27.4843578 ], [ 85.2473456, 27.4837486 ], [ 85.2475011, 27.4834012 ], [ 85.2475762, 27.4831704 ], [ 85.2476835, 27.4826921 ], [ 85.2477398, 27.48224 ], [ 85.2477318, 27.482102 ], [ 85.2476782, 27.4819545 ], [ 85.2475655, 27.4816951 ], [ 85.2474233, 27.4814881 ], [ 85.2470256, 27.4809159 ], [ 85.2469482, 27.4805333 ], [ 85.2470587, 27.4801019 ], [ 85.2473909, 27.479709 ], [ 85.2475025, 27.4795345 ], [ 85.2475749, 27.4793501 ], [ 85.247595, 27.4792929 ], [ 85.2476004, 27.4792275 ], [ 85.2475829, 27.4791442 ], [ 85.2475132, 27.4787706 ], [ 85.2475052, 27.4786386 ], [ 85.2475271, 27.4784399 ], [ 85.247536, 27.478397 ], [ 85.2476701, 27.4777997 ], [ 85.2477291, 27.4774285 ], [ 85.2478056, 27.4765837 ], [ 85.2478512, 27.4763339 ], [ 85.2478847, 27.4762565 ], [ 85.2480644, 27.4759817 ], [ 85.24811, 27.4759448 ], [ 85.2481784, 27.4759103 ], [ 85.2484399, 27.4758056 ], [ 85.2487296, 27.4757009 ], [ 85.2491105, 27.4755319 ], [ 85.2491829, 27.4755034 ], [ 85.2492687, 27.4754534 ], [ 85.2494994, 27.475332 ], [ 85.2518839, 27.474028 ], [ 85.2520663, 27.4738923 ], [ 85.2522272, 27.4737448 ], [ 85.2524766, 27.4735568 ], [ 85.2527046, 27.4733378 ], [ 85.2529433, 27.4729999 ], [ 85.2533832, 27.4722693 ], [ 85.2534288, 27.4721765 ], [ 85.2536152, 27.4718231 ], [ 85.253689, 27.4717494 ], [ 85.2537574, 27.4716435 ], [ 85.2538419, 27.4715304 ], [ 85.253921, 27.4713627 ], [ 85.2539679, 27.4712437 ], [ 85.2540591, 27.4710652 ], [ 85.2545412, 27.4705468 ], [ 85.2547619, 27.4703453 ], [ 85.2557167, 27.4696349 ], [ 85.2566743, 27.4690067 ], [ 85.2568808, 27.4688258 ], [ 85.2572322, 27.4684355 ], [ 85.2573824, 27.4681356 ], [ 85.2573824, 27.4680214 ], [ 85.2573824, 27.467831 ], [ 85.2572724, 27.4675907 ], [ 85.2569076, 27.4672932 ], [ 85.256567, 27.4670409 ], [ 85.2562612, 27.4667053 ], [ 85.2560198, 27.4664436 ], [ 85.2559233, 27.4662508 ], [ 85.2558696, 27.4660366 ], [ 85.255875, 27.4658795 ], [ 85.2559018, 27.4656273 ], [ 85.2560212, 27.4652441 ], [ 85.2564758, 27.4645135 ], [ 85.2566113, 27.4642886 ], [ 85.2568366, 27.463972 ], [ 85.2579108, 27.4627952 ], [ 85.2582809, 27.4623668 ], [ 85.2585049, 27.4620371 ], [ 85.2585438, 27.4619372 ], [ 85.2585505, 27.4617301 ], [ 85.2585478, 27.4616528 ], [ 85.2585317, 27.4615409 ], [ 85.25847, 27.4613553 ], [ 85.2584445, 27.4612648 ], [ 85.2583989, 27.4611327 ], [ 85.2583279, 27.460746 ], [ 85.2582461, 27.4604925 ], [ 85.2581964, 27.4603557 ], [ 85.2580932, 27.4599701 ], [ 85.2579416, 27.4596167 ], [ 85.2578209, 27.4593727 ], [ 85.2577995, 27.4592716 ], [ 85.2578142, 27.4591288 ], [ 85.2579068, 27.4588967 ], [ 85.2582722, 27.4584951 ], [ 85.2587853, 27.4581956 ], [ 85.2597351, 27.4578806 ], [ 85.26088, 27.457677 ], [ 85.2610195, 27.4576365 ], [ 85.2612273, 27.457546 ], [ 85.2614915, 27.4573806 ], [ 85.2616793, 27.4572593 ], [ 85.2619046, 27.4571141 ], [ 85.2619663, 27.4570641 ], [ 85.2620749, 27.4569594 ], [ 85.2622452, 27.4567404 ], [ 85.2623391, 27.4565714 ], [ 85.2625617, 27.4560918 ], [ 85.2627388, 27.4556741 ], [ 85.2627884, 27.455586 ], [ 85.2629077, 27.4554647 ], [ 85.2634039, 27.4549958 ], [ 85.2638411, 27.4547292 ], [ 85.2643427, 27.454615 ], [ 85.2648443, 27.4546388 ], [ 85.2652413, 27.4547459 ], [ 85.2656065, 27.454964 ], [ 85.2657978, 27.4550005 ], [ 85.2660592, 27.4549894 ], [ 85.2663034, 27.4549315 ], [ 85.2665234, 27.4548196 ], [ 85.2666988, 27.4545701 ], [ 85.2669445, 27.4541961 ], [ 85.267159, 27.4540128 ], [ 85.2675828, 27.4538319 ], [ 85.2682975, 27.453635 ], [ 85.269006, 27.4535761 ], [ 85.2701018, 27.4539668 ], [ 85.2708401, 27.4541251 ], [ 85.2716763, 27.4541731 ], [ 85.2728681, 27.454033 ], [ 85.2738894, 27.4538154 ], [ 85.2748542, 27.4534672 ], [ 85.275847, 27.4529386 ], [ 85.2772847, 27.4520627 ], [ 85.2780157, 27.4516979 ], [ 85.278726, 27.4515192 ], [ 85.2791378, 27.4514541 ], [ 85.2798405, 27.4514398 ], [ 85.2809966, 27.4516588 ], [ 85.2816993, 27.4517683 ], [ 85.282461, 27.4517778 ], [ 85.283778, 27.4516993 ], [ 85.2861893, 27.4518587 ], [ 85.2874647, 27.4518921 ], [ 85.2885058, 27.4517872 ], [ 85.2902676, 27.4514512 ], [ 85.2927661, 27.4514827 ], [ 85.2947053, 27.4512518 ], [ 85.2961597, 27.4508245 ], [ 85.2964649, 27.4507067 ], [ 85.296886, 27.4505734 ], [ 85.2975377, 27.4504996 ], [ 85.2982646, 27.4505734 ], [ 85.2989539, 27.450746 ], [ 85.2994448, 27.4509067 ], [ 85.2997144, 27.4510031 ], [ 85.3006625, 27.4510757 ], [ 85.3011239, 27.4510138 ], [ 85.3016227, 27.4508495 ], [ 85.3019634, 27.4506353 ], [ 85.3023148, 27.4502497 ], [ 85.3026581, 27.4498046 ], [ 85.3030309, 27.4492976 ], [ 85.3037658, 27.4485455 ], [ 85.3046295, 27.4477433 ], [ 85.3054234, 27.446665 ], [ 85.3059921, 27.4461533 ], [ 85.3066841, 27.4458653 ], [ 85.3072125, 27.4455784 ], [ 85.3076497, 27.445413 ], [ 85.3078589, 27.445363 ], [ 85.3081378, 27.4452821 ], [ 85.3083229, 27.4452511 ], [ 85.3084892, 27.445263 ], [ 85.3086206, 27.445294 ], [ 85.3088486, 27.4453559 ], [ 85.3091732, 27.4454558 ], [ 85.3096667, 27.4455368 ], [ 85.3099295, 27.4455701 ], [ 85.3102595, 27.4456486 ], [ 85.3112797, 27.4458527 ], [ 85.3116086, 27.445851 ], [ 85.311799, 27.4457938 ], [ 85.312086, 27.4456486 ], [ 85.3122979, 27.4454082 ], [ 85.3137398, 27.443647 ], [ 85.3146867, 27.4428786 ], [ 85.3154857, 27.4421914 ], [ 85.3157699, 27.441947 ], [ 85.3160217, 27.44162 ], [ 85.316053, 27.4413526 ], [ 85.3159836, 27.4409976 ], [ 85.3154978, 27.4401619 ], [ 85.3149211, 27.4395215 ], [ 85.3146234, 27.4392978 ], [ 85.3143391, 27.4390145 ], [ 85.3142425, 27.4387812 ], [ 85.3141594, 27.4385693 ], [ 85.3141406, 27.4383242 ], [ 85.314272, 27.4375315 ], [ 85.3143445, 27.4373101 ], [ 85.3144464, 27.4371101 ], [ 85.3145859, 27.4369887 ], [ 85.3147387, 27.4368887 ], [ 85.3151456, 27.4366869 ], [ 85.3158948, 27.4363555 ], [ 85.3163347, 27.4362484 ], [ 85.3168048, 27.4361799 ], [ 85.3171715, 27.4362127 ], [ 85.3176302, 27.4363602 ], [ 85.3179333, 27.436465 ], [ 85.3181881, 27.4366102 ], [ 85.3191724, 27.436803 ], [ 85.319843, 27.4368221 ], [ 85.3201327, 27.4368506 ], [ 85.3204089, 27.4368959 ], [ 85.320932, 27.4371101 ], [ 85.3213477, 27.4373363 ], [ 85.3224394, 27.4378219 ], [ 85.3235069, 27.4382361 ], [ 85.3241905, 27.438421 ], [ 85.3245127, 27.438467 ], [ 85.3248453, 27.4385122 ], [ 85.3250384, 27.4385336 ], [ 85.3255239, 27.4385003 ], [ 85.3263393, 27.4383932 ], [ 85.3268462, 27.438386 ], [ 85.327203, 27.4384099 ], [ 85.327895, 27.4384836 ], [ 85.3280559, 27.4384741 ], [ 85.3282759, 27.4384194 ], [ 85.3299174, 27.4379314 ], [ 85.3309451, 27.4375354 ], [ 85.3314694, 27.4371509 ], [ 85.3317466, 27.4369316 ], [ 85.3319156, 27.436803 ], [ 85.33209, 27.4366483 ], [ 85.3322831, 27.4364912 ], [ 85.3325513, 27.4362007 ], [ 85.3326425, 27.4360246 ], [ 85.3327015, 27.4358127 ], [ 85.3329391, 27.4350684 ], [ 85.3332245, 27.4340344 ] ] } }
]
}
